{
  "norad_id": 56030,
  "name": "STARLINK-5781",
  "history": [
    {
      "epoch": "2026-04-13T00:03:22.701312Z",
      "apogee_km": 483.78189109381947,
      "perigee_km": 482.3933164585069,
      "latitude_deg": 1.5895197684043515e-05,
      "longitude_deg": 9.348846478560247,
      "height_km": 482.89279377112956,
      "semi_major_axis_km": 6861.224603776162,
      "eccentricity": 0.00010119,
      "inclination_deg": 43.0018,
      "raan_deg": 211.3928,
      "arg_perigee_deg": 267.6371,
      "mean_anomaly_deg": 92.4365,
      "mean_motion_rev_day": 15.2756714
    },
    {
      "epoch": "2026-04-14T13:43:07.834944Z",
      "apogee_km": 483.68843732125515,
      "perigee_km": 482.49869994065466,
      "latitude_deg": -1.8593613213194246e-05,
      "longitude_deg": 154.0018089125959,
      "height_km": 482.86431473677425,
      "semi_major_axis_km": 6861.230568630955,
      "eccentricity": 8.67e-05,
      "inclination_deg": 43.0018,
      "raan_deg": 202.5306,
      "arg_perigee_deg": 270.549,
      "mean_anomaly_deg": 89.5262,
      "mean_motion_rev_day": 15.27565148
    },
    {
      "epoch": "2026-04-15T13:15:28.723392Z",
      "apogee_km": 483.64880879682914,
      "perigee_km": 482.49461626720677,
      "latitude_deg": 5.259894282640816e-05,
      "longitude_deg": 154.40913343184246,
      "height_km": 482.8471513958527,
      "semi_major_axis_km": 6861.208712532018,
      "eccentricity": 8.411e-05,
      "inclination_deg": 43.0015,
      "raan_deg": 196.9916,
      "arg_perigee_deg": 270.0934,
      "mean_anomaly_deg": 89.9822,
      "mean_motion_rev_day": 15.27572447
    },
    {
      "epoch": "2026-04-16T12:47:49.343136Z",
      "apogee_km": 483.6396361293173,
      "perigee_km": 482.463628397747,
      "latitude_deg": -3.4168090302836825e-05,
      "longitude_deg": 154.81701232237796,
      "height_km": 482.85211840497084,
      "semi_major_axis_km": 6861.188632263532,
      "eccentricity": 8.57e-05,
      "inclination_deg": 43.0013,
      "raan_deg": 191.4522,
      "arg_perigee_deg": 267.6501,
      "mean_anomaly_deg": 92.4252,
      "mean_motion_rev_day": 15.27579153
    },
    {
      "epoch": "2026-04-17T21:45:05.920128Z",
      "apogee_km": 483.62737645507514,
      "perigee_km": 482.4421776423078,
      "latitude_deg": 2.3760611913840293e-05,
      "longitude_deg": 11.389507703587793,
      "height_km": 482.81671879280026,
      "semi_major_axis_km": 6861.171777048691,
      "eccentricity": 8.637e-05,
      "inclination_deg": 43.0015,
      "raan_deg": 183.6971,
      "arg_perigee_deg": 269.4643,
      "mean_anomaly_deg": 90.611,
      "mean_motion_rev_day": 15.27584782
    },
    {
      "epoch": "2026-04-18T11:52:30.032256Z",
      "apogee_km": 483.6282995979618,
      "perigee_km": 482.4248515068102,
      "latitude_deg": 3.9356169198792876e-05,
      "longitude_deg": 155.63553126964308,
      "height_km": 482.8485867117806,
      "semi_major_axis_km": 6861.163575552386,
      "eccentricity": 8.77e-05,
      "inclination_deg": 43.0017,
      "raan_deg": 180.3736,
      "arg_perigee_deg": 265.6552,
      "mean_anomaly_deg": 94.42,
      "mean_motion_rev_day": 15.27587521
    },
    {
      "epoch": "2026-04-19T12:59:00.837024Z",
      "apogee_km": 483.7619407622751,
      "perigee_km": 482.3951866219886,
      "latitude_deg": -4.708654167963895e-05,
      "longitude_deg": 132.066213417751,
      "height_km": 482.95211407914013,
      "semi_major_axis_km": 6861.215563692132,
      "eccentricity": 9.96e-05,
      "inclination_deg": 43.0036,
      "raan_deg": 174.4639,
      "arg_perigee_deg": 261.8559,
      "mean_anomaly_deg": 98.2179,
      "mean_motion_rev_day": 15.27570159
    },
    {
      "epoch": "2026-04-20T10:57:12.254976Z",
      "apogee_km": 483.7796038790875,
      "perigee_km": 482.3342247690962,
      "latitude_deg": 1.2948340651820795e-05,
      "longitude_deg": 156.44783184839088,
      "height_km": 482.91958958415665,
      "semi_major_axis_km": 6861.193914324092,
      "eccentricity": 0.00010533,
      "inclination_deg": 43.0026,
      "raan_deg": 169.2953,
      "arg_perigee_deg": 263.1657,
      "mean_anomaly_deg": 96.9075,
      "mean_motion_rev_day": 15.27577389
    },
    {
      "epoch": "2026-04-21T10:29:32.921376Z",
      "apogee_km": 483.8633537355572,
      "perigee_km": 482.29748669591663,
      "latitude_deg": 4.063826036742681e-05,
      "longitude_deg": 156.8565336103063,
      "height_km": 482.9271071080251,
      "semi_major_axis_km": 6861.217420215737,
      "eccentricity": 0.00011411,
      "inclination_deg": 43.0025,
      "raan_deg": 163.7568,
      "arg_perigee_deg": 264.8747,
      "mean_anomaly_deg": 95.1975,
      "mean_motion_rev_day": 15.27569539
    }
  ]
}